{
  "type": "FeatureCollection",
  "features": [
    {
      "type": "Feature",
      "properties": {
        "norad_id": 34350,
        "name": "IRIDIUM 33 DEB",
        "group": "iridium-33-debris",
        "lat": 38.483088401930296,
        "lon": 176.38870426948026,
        "alt_km": 723.6321526459797,
        "timestamp": "2025-12-20T18:51:32.098065+00:00",
        "meta_object_name": "IRIDIUM 33 DEB",
        "meta_object_id": "1997-051ES",
        "meta_epoch": "2025-12-20T12:08:32.676864",
        "meta_mean_motion": 14.45403421,
        "meta_eccentricity": 0.00233571,
        "meta_inclination": 86.3272,
        "meta_ra_of_asc_node": 359.437,
        "meta_arg_of_pericenter": 111.3737,
        "meta_mean_anomaly": 14.544,
        "meta_ephemeris_type": 0,
        "meta_classification_type": "U",
        "meta_norad_cat_id": 34350,
        "meta_element_set_no": 999,
        "meta_rev_at_epoch": 88405,
        "meta_bstar": 0.00023374563,
        "meta_mean_motion_dot": 8.45e-06,
        "meta_mean_motion_ddot": 0,
        "tle_line1": "1 34350U 97051ES  25354.50593376  .00000845  00000+0  23375-3 0  9993",
        "tle_line2": "2 34350  86.3272 359.4370 0023357 111.3737  14.5440 14.45403421884050"
      },
      "geometry": {
        "type": "Point",
        "coordinates": [
          176.38870426948026,
          38.483088401930296
        ]
      }
    },
    {
      "type": "Feature",
      "properties": {
        "norad_id": 34366,
        "name": "IRIDIUM 33 DEB",
        "group": "iridium-33-debris",
        "lat": 0.2546905953722129,
        "lon": 45.830109447341286,
        "alt_km": 721.9342930402518,
        "timestamp": "2025-12-20T18:51:32.098075+00:00",
        "meta_object_name": "IRIDIUM 33 DEB",
        "meta_object_id": "1997-051FJ",
        "meta_epoch": "2025-12-20T14:28:26.320224",
        "meta_mean_motion": 14.54113627,
        "meta_eccentricity": 0.00229834,
        "meta_inclination": 86.369,
        "meta_ra_of_asc_node": 45.8934,
        "meta_arg_of_pericenter": 115.1791,
        "meta_mean_anomaly": 9.6225,
        "meta_ephemeris_type": 0,
        "meta_classification_type": "U",
        "meta_norad_cat_id": 34366,
        "meta_element_set_no": 999,
        "meta_rev_at_epoch": 88296,
        "meta_bstar": 0.00058238853,
        "meta_mean_motion_dot": 2.489e-05,
        "meta_mean_motion_ddot": 0,
        "tle_line1": "1 34366U 97051FJ  25354.60308241  .00002489  00000+0  58239-3 0  9999",
        "tle_line2": "2 34366  86.3690  45.8934 0022983 115.1791   9.6225 14.54113627882969"
      },
      "geometry": {
        "type": "Point",
        "coordinates": [
          45.830109447341286,
          0.2546905953722129
        ]
      }
    },
    {
      "type": "Feature",
      "properties": {
        "norad_id": 34375,
        "name": "IRIDIUM 33 DEB",
        "group": "iridium-33-debris",
        "lat": -48.68324876495507,
        "lon": 175.3868737220151,
        "alt_km": 903.7855592620181,
        "timestamp": "2025-12-20T18:51:32.098086+00:00",
        "meta_object_name": "IRIDIUM 33 DEB",
        "meta_object_id": "1997-051FT",
        "meta_epoch": "2025-12-20T12:24:40.051872",
        "meta_mean_motion": 14.18005586,
        "meta_eccentricity": 0.01036912,
        "meta_inclination": 86.4321,
        "meta_ra_of_asc_node": 179.5653,
        "meta_arg_of_pericenter": 102.408,
        "meta_mean_anomaly": 278.8624,
        "meta_ephemeris_type": 0,
        "meta_classification_type": "U",
        "meta_norad_cat_id": 34375,
        "meta_element_set_no": 999,
        "meta_rev_at_epoch": 86822,
        "meta_bstar": 0.00031260448,
        "meta_mean_motion_dot": 6.95e-06,
        "meta_mean_motion_ddot": 0,
        "tle_line1": "1 34375U 97051FT  25354.51713023  .00000695  00000+0  31260-3 0  9999",
        "tle_line2": "2 34375  86.4321 179.5653 0103691 102.4080 278.8624 14.18005586868220"
      },
      "geometry": {
        "type": "Point",
        "coordinates": [
          175.3868737220151,
          -48.68324876495507
        ]
      }
    },
    {
      "type": "Feature",
      "properties": {
        "norad_id": 34376,
        "name": "IRIDIUM 33 DEB",
        "group": "iridium-33-debris",
        "lat": 4.765802888371469,
        "lon": -177.38705283604824,
        "alt_km": 670.7705301532133,
        "timestamp": "2025-12-20T18:51:32.098097+00:00",
        "meta_object_name": "IRIDIUM 33 DEB",
        "meta_object_id": "1997-051FU",
        "meta_epoch": "2025-12-20T11:29:41.973792",
        "meta_mean_motion": 14.6266394,
        "meta_eccentricity": 0.00280656,
        "meta_inclination": 86.2976,
        "meta_ra_of_asc_node": 3.0602,
        "meta_arg_of_pericenter": 141.121,
        "meta_mean_anomaly": 219.2028,
        "meta_ephemeris_type": 0,
        "meta_classification_type": "U",
        "meta_norad_cat_id": 34376,
        "meta_element_set_no": 999,
        "meta_rev_at_epoch": 88120,
        "meta_bstar": 0.00090518221,
        "meta_mean_motion_dot": 4.652e-05,
        "meta_mean_motion_ddot": 0,
        "tle_line1": "1 34376U 97051FU  25354.47895803  .00004652  00000+0  90518-3 0  9990",
        "tle_line2": "2 34376  86.2976   3.0602 0028065 141.1210 219.2028 14.62663940881209"
      },
      "geometry": {
        "type": "Point",
        "coordinates": [
          -177.38705283604824,
          4.765802888371469
        ]
      }
    },
    {
      "type": "Feature",
      "properties": {
        "norad_id": 34486,
        "name": "IRIDIUM 33 DEB",
        "group": "iridium-33-debris",
        "lat": -82.81259517045102,
        "lon": -21.705107656181408,
        "alt_km": 595.9281396257857,
        "timestamp": "2025-12-20T18:51:32.098107+00:00",
        "meta_object_name": "IRIDIUM 33 DEB",
        "meta_object_id": "1997-051GB",
        "meta_epoch": "2025-12-20T00:04:17.796000",
        "meta_mean_motion": 14.96101928,
        "meta_eccentricity": 0.0013908,
        "meta_inclination": 86.3929,
        "meta_ra_of_asc_node": 8.6716,
        "meta_arg_of_pericenter": 91.5412,
        "meta_mean_anomaly": 291.3403,
        "meta_ephemeris_type": 0,
        "meta_classification_type": "U",
        "meta_norad_cat_id": 34486,
        "meta_element_set_no": 999,
        "meta_rev_at_epoch": 89095,
        "meta_bstar": 0.0013547,
        "meta_mean_motion_dot": 0.00015301,
        "meta_mean_motion_ddot": 0,
        "tle_line1": "1 34486U 97051GB  25354.00298375  .00015301  00000+0  13547-2 0  9991",
        "tle_line2": "2 34486  86.3929   8.6716 0013908  91.5412 291.3403 14.96101928890959"
      },
      "geometry": {
        "type": "Point",
        "coordinates": [
          -21.705107656181408,
          -82.81259517045102
        ]
      }
    },
    {
      "type": "Feature",
      "properties": {
        "norad_id": 34487,
        "name": "IRIDIUM 33 DEB",
        "group": "iridium-33-debris",
        "lat": -26.104688459312534,
        "lon": -169.29126824172332,
        "alt_km": 758.7699701492975,
        "timestamp": "2025-12-20T18:51:32.098117+00:00",
        "meta_object_name": "IRIDIUM 33 DEB",
        "meta_object_id": "1997-051GC",
        "meta_epoch": "2025-12-20T11:57:25.083072",
        "meta_mean_motion": 14.43225278,
        "meta_eccentricity": 0.0033198,
        "meta_inclination": 86.343,
        "meta_ra_of_asc_node": 9.0367,
        "meta_arg_of_pericenter": 104.2431,
        "meta_mean_anomaly": 48.2266,
        "meta_ephemeris_type": 0,
        "meta_classification_type": "U",
        "meta_norad_cat_id": 34487,
        "meta_element_set_no": 999,
        "meta_rev_at_epoch": 88360,
        "meta_bstar": 0.00013260723,
        "meta_mean_motion_dot": 4.69e-06,
        "meta_mean_motion_ddot": 0,
        "tle_line1": "1 34487U 97051GC  25354.49820698  .00000469  00000+0  13261-3 0  9997",
        "tle_line2": "2 34487  86.3430   9.0367 0033198 104.2431  48.2266 14.43225278883607"
      },
      "geometry": {
        "type": "Point",
        "coordinates": [
          -169.29126824172332,
          -26.104688459312534
        ]
      }
    },
    {
      "type": "Feature",
      "properties": {
        "norad_id": 34488,
        "name": "IRIDIUM 33 DEB",
        "group": "iridium-33-debris",
        "lat": 4.2669475691439125,
        "lon": 121.54642773512553,
        "alt_km": 480.4664438096279,
        "timestamp": "2025-12-20T18:51:32.098128+00:00",
        "meta_object_name": "IRIDIUM 33 DEB",
        "meta_object_id": "1997-051GD",
        "meta_epoch": "2025-12-20T00:50:30.763392",
        "meta_mean_motion": 15.31136537,
        "meta_eccentricity": 0.00111988,
        "meta_inclination": 86.3246,
        "meta_ra_of_asc_node": 302.194,
        "meta_arg_of_pericenter": 39.0214,
        "meta_mean_anomaly": 321.1841,
        "meta_ephemeris_type": 0,
        "meta_classification_type": "U",
        "meta_norad_cat_id": 34488,
        "meta_element_set_no": 999,
        "meta_rev_at_epoch": 89351,
        "meta_bstar": 0.0029700032,
        "meta_mean_motion_dot": 0.00090383,
        "meta_mean_motion_ddot": 0,
        "tle_line1": "1 34488U 97051GD  25354.03507828  .00090383  00000+0  29700-2 0  9993",
        "tle_line2": "2 34488  86.3246 302.1940 0011198  39.0214 321.1841 15.31136537893517"
      },
      "geometry": {
        "type": "Point",
        "coordinates": [
          121.54642773512553,
          4.2669475691439125
        ]
      }
    }
  ]
}